STARLINK-36710          
1 67971U 26038L   26066.58334491 -.01583367  73278-3 -39822-2 0  9997
2 67971  97.2727  76.7164 0001217 102.4857 147.7359 15.95734700  2868
STARLINK-36894          
1 67972U 26038M   26066.58334491 -.01576464  72792-3 -39355-2 0  9999
2 67972  97.2723  76.7178 0001262  93.3945 160.3742 15.95871917  2865
STARLINK-36900          
1 67973U 26038N   26066.58334491 -.01561280  71704-3 -38401-2 0  9993
2 67973  97.2721  76.7206 0001201 105.1910 155.6757 15.96146195  2860
STARLINK-36901          
1 67974U 26038P   26066.58334491 -.01575189  72785-3 -39044-2 0  9991
2 67974  97.2722  76.7190 0001316  96.8564 160.2789 15.96004373  2860
STARLINK-36883          
1 67975U 26038Q   26066.58334491 -.01557226  71795-3 -37137-2 0  9995
2 67975  97.2714  76.7267 0001187  95.1675 180.1053 15.96716917  2867
STARLINK-36880          
1 67976U 26038R   26066.58334491 -.01563575  72010-3 -38162-2 0  9990
2 67976  97.2719  76.7219 0001231  99.2900 165.2053 15.96289700  2865
STARLINK-36904          
1 67977U 26038S   26066.58334491 -.01552783  71304-3 -37323-2 0  9993
2 67977  97.2713  76.7247 0001172  90.3972 181.2618 15.96571654  2863
STARLINK-36364          
1 67978U 26038T   26066.58334491 -.01548660  71326-3 -36248-2 0  9992
2 67978  97.2707  76.7301 0001125  93.1107 190.6374 15.97060185  2863
STARLINK-36359          
1 67979U 26038U   26066.58334491 -.01561174  71897-3 -37854-2 0  9995
2 67979  97.2716  76.7228 0001219 100.2782 167.2409 15.96410839  2868
STARLINK-36882          
1 67980U 26038V   26066.58334491 -.01553524  71618-3 -36683-2 0  9997
2 67980  97.2708  76.7282 0001205 101.5447 178.1782 15.96898992  2863
STARLINK-36874          
1 67981U 26038W   26066.58334491 -.01548425  71396-3 -36012-2 0  9991
2 67981  97.2707  76.7312 0001206  88.9324 197.7670 15.97176851  2867
STARLINK-36879          
1 67982U 26038X   26066.58334491 -.01546163  71313-3 -35679-2 0  9996
2 67982  97.2703  76.7327 0001140  93.5156 196.7946 15.97320240  2860
STARLINK-36867          
1 67983U 26038Y   26066.58334491 -.01530452  70192-3 -34760-2 0  9995
2 67983  97.2700  76.7361 0001222  87.4273 210.2262 15.97607872  2861
STARLINK-36266          
1 67984U 26038Z   26066.58334491 -.01525849  69700-3 -34910-2 0  9990
2 67984  97.2702  76.7347 0001135  95.4104 198.9331 15.97474170  2832
STARLINK-36802          
1 67985U 26038AA  26066.58334491 -.01535947  70755-3 -34651-2 0  9995
2 67985  97.2698  76.7372 0001123 101.7055 198.9718 15.97731613  2868
STARLINK-36535          
1 67986U 26039A   26066.58334491 -.01462115  00000+0 -53255-2 0  9996
2 67986  42.9975  67.9416 0001627 267.5179 329.0387 15.90297009  2534
