[{"OBJECT_NAME":"STARLINK-36710","OBJECT_ID":"2026-038L","EPOCH":"2026-03-07T14:00:01.000224","MEAN_MOTION":15.957347,"ECCENTRICITY":0.00012171,"INCLINATION":97.2727,"RA_OF_ASC_NODE":76.7164,"ARG_OF_PERICENTER":102.4857,"MEAN_ANOMALY":147.7359,"EPHEMERIS_TYPE":0,"CLASSIFICATION_TYPE":"U","NORAD_CAT_ID":67971,"ELEMENT_SET_NO":999,"REV_AT_EPOCH":286,"BSTAR":-0.0039821641,"MEAN_MOTION_DOT":-0.01583367,"MEAN_MOTION_DDOT":0.00073277993},{"OBJECT_NAME":"STARLINK-36894","OBJECT_ID":"2026-038M","EPOCH":"2026-03-07T14:00:01.000224","MEAN_MOTION":15.95871917,"ECCENTRICITY":0.00012621,"INCLINATION":97.2723,"RA_OF_ASC_NODE":76.7178,"ARG_OF_PERICENTER":93.3945,"MEAN_ANOMALY":160.3742,"EPHEMERIS_TYPE":0,"CLASSIFICATION_TYPE":"U","NORAD_CAT_ID":67972,"ELEMENT_SET_NO":999,"REV_AT_EPOCH":286,"BSTAR":-0.0039355017,"MEAN_MOTION_DOT":-0.01576464,"MEAN_MOTION_DDOT":0.00072791843},{"OBJECT_NAME":"STARLINK-36900","OBJECT_ID":"2026-038N","EPOCH":"2026-03-07T14:00:01.000224","MEAN_MOTION":15.96146195,"ECCENTRICITY":0.00012013,"INCLINATION":97.2721,"RA_OF_ASC_NODE":76.7206,"ARG_OF_PERICENTER":105.191,"MEAN_ANOMALY":155.6757,"EPHEMERIS_TYPE":0,"CLASSIFICATION_TYPE":"U","NORAD_CAT_ID":67973,"ELEMENT_SET_NO":999,"REV_AT_EPOCH":286,"BSTAR":-0.0038401297,"MEAN_MOTION_DOT":-0.0156128,"MEAN_MOTION_DDOT":0.00071703964},{"OBJECT_NAME":"STARLINK-36901","OBJECT_ID":"2026-038P","EPOCH":"2026-03-07T14:00:01.000224","MEAN_MOTION":15.96004373,"ECCENTRICITY":0.0001316,"INCLINATION":97.2722,"RA_OF_ASC_NODE":76.719,"ARG_OF_PERICENTER":96.8564,"MEAN_ANOMALY":160.2789,"EPHEMERIS_TYPE":0,"CLASSIFICATION_TYPE":"U","NORAD_CAT_ID":67974,"ELEMENT_SET_NO":999,"REV_AT_EPOCH":286,"BSTAR":-0.0039043691,"MEAN_MOTION_DOT":-0.01575189,"MEAN_MOTION_DDOT":0.00072784727},{"OBJECT_NAME":"STARLINK-36883","OBJECT_ID":"2026-038Q","EPOCH":"2026-03-07T14:00:01.000224","MEAN_MOTION":15.96716917,"ECCENTRICITY":0.00011873,"INCLINATION":97.2714,"RA_OF_ASC_NODE":76.7267,"ARG_OF_PERICENTER":95.1675,"MEAN_ANOMALY":180.1053,"EPHEMERIS_TYPE":0,"CLASSIFICATION_TYPE":"U","NORAD_CAT_ID":67975,"ELEMENT_SET_NO":999,"REV_AT_EPOCH":286,"BSTAR":-0.0037137017,"MEAN_MOTION_DOT":-0.01557226,"MEAN_MOTION_DDOT":0.00071795056},{"OBJECT_NAME":"STARLINK-36880","OBJECT_ID":"2026-038R","EPOCH":"2026-03-07T14:00:01.000224","MEAN_MOTION":15.962897,"ECCENTRICITY":0.00012312,"INCLINATION":97.2719,"RA_OF_ASC_NODE":76.7219,"ARG_OF_PERICENTER":99.29,"MEAN_ANOMALY":165.2053,"EPHEMERIS_TYPE":0,"CLASSIFICATION_TYPE":"U","NORAD_CAT_ID":67976,"ELEMENT_SET_NO":999,"REV_AT_EPOCH":286,"BSTAR":-0.003816186,"MEAN_MOTION_DOT":-0.01563575,"MEAN_MOTION_DDOT":0.00072009759},{"OBJECT_NAME":"STARLINK-36904","OBJECT_ID":"2026-038S","EPOCH":"2026-03-07T14:00:01.000224","MEAN_MOTION":15.96571654,"ECCENTRICITY":0.00011727,"INCLINATION":97.2713,"RA_OF_ASC_NODE":76.7247,"ARG_OF_PERICENTER":90.3972,"MEAN_ANOMALY":181.2618,"EPHEMERIS_TYPE":0,"CLASSIFICATION_TYPE":"U","NORAD_CAT_ID":67977,"ELEMENT_SET_NO":999,"REV_AT_EPOCH":286,"BSTAR":-0.0037322539,"MEAN_MOTION_DOT":-0.01552783,"MEAN_MOTION_DDOT":0.00071304419},{"OBJECT_NAME":"STARLINK-36364","OBJECT_ID":"2026-038T","EPOCH":"2026-03-07T14:00:01.000224","MEAN_MOTION":15.97060185,"ECCENTRICITY":0.00011259,"INCLINATION":97.2707,"RA_OF_ASC_NODE":76.7301,"ARG_OF_PERICENTER":93.1107,"MEAN_ANOMALY":190.6374,"EPHEMERIS_TYPE":0,"CLASSIFICATION_TYPE":"U","NORAD_CAT_ID":67978,"ELEMENT_SET_NO":999,"REV_AT_EPOCH":286,"BSTAR":-0.0036248058,"MEAN_MOTION_DOT":-0.0154866,"MEAN_MOTION_DDOT":0.00071326405},{"OBJECT_NAME":"STARLINK-36359","OBJECT_ID":"2026-038U","EPOCH":"2026-03-07T14:00:01.000224","MEAN_MOTION":15.96410839,"ECCENTRICITY":0.00012197,"INCLINATION":97.2716,"RA_OF_ASC_NODE":76.7228,"ARG_OF_PERICENTER":100.2782,"MEAN_ANOMALY":167.2409,"EPHEMERIS_TYPE":0,"CLASSIFICATION_TYPE":"U","NORAD_CAT_ID":67979,"ELEMENT_SET_NO":999,"REV_AT_EPOCH":286,"BSTAR":-0.0037854214,"MEAN_MOTION_DOT":-0.01561174,"MEAN_MOTION_DDOT":0.00071897423},{"OBJECT_NAME":"STARLINK-36882","OBJECT_ID":"2026-038V","EPOCH":"2026-03-07T14:00:01.000224","MEAN_MOTION":15.96898992,"ECCENTRICITY":0.00012052,"INCLINATION":97.2708,"RA_OF_ASC_NODE":76.7282,"ARG_OF_PERICENTER":101.5447,"MEAN_ANOMALY":178.1782,"EPHEMERIS_TYPE":0,"CLASSIFICATION_TYPE":"U","NORAD_CAT_ID":67980,"ELEMENT_SET_NO":999,"REV_AT_EPOCH":286,"BSTAR":-0.0036683201,"MEAN_MOTION_DOT":-0.01553524,"MEAN_MOTION_DDOT":0.00071618246},{"OBJECT_NAME":"STARLINK-36874","OBJECT_ID":"2026-038W","EPOCH":"2026-03-07T14:00:01.000224","MEAN_MOTION":15.97176851,"ECCENTRICITY":0.00012067,"INCLINATION":97.2707,"RA_OF_ASC_NODE":76.7312,"ARG_OF_PERICENTER":88.9324,"MEAN_ANOMALY":197.767,"EPHEMERIS_TYPE":0,"CLASSIFICATION_TYPE":"U","NORAD_CAT_ID":67981,"ELEMENT_SET_NO":999,"REV_AT_EPOCH":286,"BSTAR":-0.0036012398,"MEAN_MOTION_DOT":-0.01548425,"MEAN_MOTION_DDOT":0.00071396113},{"OBJECT_NAME":"STARLINK-36879","OBJECT_ID":"2026-038X","EPOCH":"2026-03-07T14:00:01.000224","MEAN_MOTION":15.9732024,"ECCENTRICITY":0.00011409,"INCLINATION":97.2703,"RA_OF_ASC_NODE":76.7327,"ARG_OF_PERICENTER":93.5156,"MEAN_ANOMALY":196.7946,"EPHEMERIS_TYPE":0,"CLASSIFICATION_TYPE":"U","NORAD_CAT_ID":67982,"ELEMENT_SET_NO":999,"REV_AT_EPOCH":286,"BSTAR":-0.0035679127,"MEAN_MOTION_DOT":-0.01546163,"MEAN_MOTION_DDOT":0.00071312904},{"OBJECT_NAME":"STARLINK-36867","OBJECT_ID":"2026-038Y","EPOCH":"2026-03-07T14:00:01.000224","MEAN_MOTION":15.97607872,"ECCENTRICITY":0.00012223,"INCLINATION":97.27,"RA_OF_ASC_NODE":76.7361,"ARG_OF_PERICENTER":87.4273,"MEAN_ANOMALY":210.2262,"EPHEMERIS_TYPE":0,"CLASSIFICATION_TYPE":"U","NORAD_CAT_ID":67983,"ELEMENT_SET_NO":999,"REV_AT_EPOCH":286,"BSTAR":-0.0034760469,"MEAN_MOTION_DOT":-0.01530452,"MEAN_MOTION_DDOT":0.00070192251},{"OBJECT_NAME":"STARLINK-36266","OBJECT_ID":"2026-038Z","EPOCH":"2026-03-07T14:00:01.000224","MEAN_MOTION":15.9747417,"ECCENTRICITY":0.00011355,"INCLINATION":97.2702,"RA_OF_ASC_NODE":76.7347,"ARG_OF_PERICENTER":95.4104,"MEAN_ANOMALY":198.9331,"EPHEMERIS_TYPE":0,"CLASSIFICATION_TYPE":"U","NORAD_CAT_ID":67984,"ELEMENT_SET_NO":999,"REV_AT_EPOCH":283,"BSTAR":-0.0034909869,"MEAN_MOTION_DOT":-0.01525849,"MEAN_MOTION_DDOT":0.00069699722},{"OBJECT_NAME":"STARLINK-36802","OBJECT_ID":"2026-038AA","EPOCH":"2026-03-07T14:00:01.000224","MEAN_MOTION":15.97731613,"ECCENTRICITY":0.0001123,"INCLINATION":97.2698,"RA_OF_ASC_NODE":76.7372,"ARG_OF_PERICENTER":101.7055,"MEAN_ANOMALY":198.9718,"EPHEMERIS_TYPE":0,"CLASSIFICATION_TYPE":"U","NORAD_CAT_ID":67985,"ELEMENT_SET_NO":999,"REV_AT_EPOCH":286,"BSTAR":-0.0034651124,"MEAN_MOTION_DOT":-0.01535947,"MEAN_MOTION_DDOT":0.0007075546},{"OBJECT_NAME":"STARLINK-36535","OBJECT_ID":"2026-039A","EPOCH":"2026-03-07T14:00:01.000224","MEAN_MOTION":15.90297009,"ECCENTRICITY":0.00016275,"INCLINATION":42.9975,"RA_OF_ASC_NODE":67.9416,"ARG_OF_PERICENTER":267.5179,"MEAN_ANOMALY":329.0387,"EPHEMERIS_TYPE":0,"CLASSIFICATION_TYPE":"U","NORAD_CAT_ID":67986,"ELEMENT_SET_NO":999,"REV_AT_EPOCH":253,"BSTAR":-0.0053255049,"MEAN_MOTION_DOT":-0.01462115,"MEAN_MOTION_DDOT":0}]
